{
  "type": "FeatureCollection",
  "features": [
    {
      "type": "Feature",
      "properties": {
        "norad_id": 31303,
        "name": "FENGYUN 1C DEB",
        "group": "fengyun-1c-debris",
        "lat": 76.65012478625592,
        "lon": -137.33080068402109,
        "alt_km": 843.6152306935219,
        "timestamp": "2025-12-12T05:47:29.052768+00:00",
        "meta_object_name": "FENGYUN 1C DEB",
        "meta_object_id": "1999-025BPM",
        "meta_epoch": "2025-12-12T00:12:46.138176",
        "meta_mean_motion": 14.1102451,
        "meta_eccentricity": 0.00115637,
        "meta_inclination": 98.7048,
        "meta_ra_of_asc_node": 2.2342,
        "meta_arg_of_pericenter": 154.1649,
        "meta_mean_anomaly": 206.0102,
        "meta_ephemeris_type": 0,
        "meta_classification_type": "U",
        "meta_norad_cat_id": 31303,
        "meta_element_set_no": 999,
        "meta_rev_at_epoch": 96308,
        "meta_bstar": 0.00014182065,
        "meta_mean_motion_dot": 2.13e-06,
        "meta_mean_motion_ddot": 0,
        "tle_line1": "1 31303U 99025BPM 25346.00886734  .00000213  00000+0  14182-3 0  9995",
        "tle_line2": "2 31303  98.7048   2.2342 0011563 154.1649 206.0102 14.11024510963083"
      },
      "geometry": {
        "type": "Point",
        "coordinates": [
          -137.33080068402109,
          76.65012478625592
        ]
      }
    },
    {
      "type": "Feature",
      "properties": {
        "norad_id": 31311,
        "name": "FENGYUN 1C DEB",
        "group": "fengyun-1c-debris",
        "lat": 53.18170161018197,
        "lon": -100.40444899157112,
        "alt_km": 776.8983411396839,
        "timestamp": "2025-12-12T05:47:29.052778+00:00",
        "meta_object_name": "FENGYUN 1C DEB",
        "meta_object_id": "1999-025BPP",
        "meta_epoch": "2025-12-11T04:19:12.512352",
        "meta_mean_motion": 14.29722723,
        "meta_eccentricity": 0.00187827,
        "meta_inclination": 98.8525,
        "meta_ra_of_asc_node": 66.5011,
        "meta_arg_of_pericenter": 91.303,
        "meta_mean_anomaly": 334.9252,
        "meta_ephemeris_type": 0,
        "meta_classification_type": "U",
        "meta_norad_cat_id": 31311,
        "meta_element_set_no": 999,
        "meta_rev_at_epoch": 96199,
        "meta_bstar": 0.0026903693,
        "meta_mean_motion_dot": 6.876e-05,
        "meta_mean_motion_ddot": 0,
        "tle_line1": "1 31311U 99025BPP 25345.18000593  .00006876  00000+0  26904-2 0  9998",
        "tle_line2": "2 31311  98.8525  66.5011 0018782  91.3030 334.9252 14.29722723961990"
      },
      "geometry": {
        "type": "Point",
        "coordinates": [
          -100.40444899157112,
          53.18170161018197
        ]
      }
    },
    {
      "type": "Feature",
      "properties": {
        "norad_id": 31312,
        "name": "FENGYUN 1C DEB",
        "group": "fengyun-1c-debris",
        "lat": -18.09872601569862,
        "lon": -25.153207801021548,
        "alt_km": 905.4681759749383,
        "timestamp": "2025-12-12T05:47:29.052790+00:00",
        "meta_object_name": "FENGYUN 1C DEB",
        "meta_object_id": "1999-025BPQ",
        "meta_epoch": "2025-12-10T11:38:58.756128",
        "meta_mean_motion": 14.00915734,
        "meta_eccentricity": 0.00579,
        "meta_inclination": 98.8587,
        "meta_ra_of_asc_node": 330.2224,
        "meta_arg_of_pericenter": 242.6838,
        "meta_mean_anomaly": 247.7712,
        "meta_ephemeris_type": 0,
        "meta_classification_type": "U",
        "meta_norad_cat_id": 31312,
        "meta_element_set_no": 999,
        "meta_rev_at_epoch": 95114,
        "meta_bstar": 0.00075527153,
        "meta_mean_motion_dot": 1.103e-05,
        "meta_mean_motion_ddot": 0,
        "tle_line1": "1 31312U 99025BPQ 25344.48540227  .00001103  00000+0  75527-3 0  9998",
        "tle_line2": "2 31312  98.8587 330.2224 0057900 242.6838 247.7712 14.00915734951141"
      },
      "geometry": {
        "type": "Point",
        "coordinates": [
          -25.153207801021548,
          -18.09872601569862
        ]
      }
    },
    {
      "type": "Feature",
      "properties": {
        "norad_id": 31313,
        "name": "FENGYUN 1C DEB",
        "group": "fengyun-1c-debris",
        "lat": -11.832059487217647,
        "lon": -107.98035930530115,
        "alt_km": 853.057638893054,
        "timestamp": "2025-12-12T05:47:29.052802+00:00",
        "meta_object_name": "FENGYUN 1C DEB",
        "meta_object_id": "1999-025BPR",
        "meta_epoch": "2025-12-11T16:20:27.420288",
        "meta_mean_motion": 14.22271919,
        "meta_eccentricity": 0.00446053,
        "meta_inclination": 99.0147,
        "meta_ra_of_asc_node": 249.541,
        "meta_arg_of_pericenter": 184.2607,
        "meta_mean_anomaly": 175.8197,
        "meta_ephemeris_type": 0,
        "meta_classification_type": "U",
        "meta_norad_cat_id": 31313,
        "meta_element_set_no": 999,
        "meta_rev_at_epoch": 97047,
        "meta_bstar": 0.00044794234,
        "meta_mean_motion_dot": 9.59e-06,
        "meta_mean_motion_ddot": 0,
        "tle_line1": "1 31313U 99025BPR 25345.68087292  .00000959  00000+0  44794-3 0  9990",
        "tle_line2": "2 31313  99.0147 249.5410 0044605 184.2607 175.8197 14.22271919970478"
      },
      "geometry": {
        "type": "Point",
        "coordinates": [
          -107.98035930530115,
          -11.832059487217647
        ]
      }
    },
    {
      "type": "Feature",
      "properties": {
        "norad_id": 31314,
        "name": "FENGYUN 1C DEB",
        "group": "fengyun-1c-debris",
        "lat": 67.52967461884033,
        "lon": -41.78829470059554,
        "alt_km": 850.5652267383102,
        "timestamp": "2025-12-12T05:47:29.052813+00:00",
        "meta_object_name": "FENGYUN 1C DEB",
        "meta_object_id": "1999-025BPS",
        "meta_epoch": "2025-12-06T05:53:33.958752",
        "meta_mean_motion": 14.04913607,
        "meta_eccentricity": 0.00791603,
        "meta_inclination": 98.8218,
        "meta_ra_of_asc_node": 334.4356,
        "meta_arg_of_pericenter": 15.6231,
        "meta_mean_anomaly": 344.7353,
        "meta_ephemeris_type": 0,
        "meta_classification_type": "U",
        "meta_norad_cat_id": 31314,
        "meta_element_set_no": 999,
        "meta_rev_at_epoch": 60723,
        "meta_bstar": 0.00045752491,
        "meta_mean_motion_dot": 7.13e-06,
        "meta_mean_motion_ddot": 0,
        "tle_line1": "1 31314U 99025BPS 25340.24553193  .00000713  00000+0  45752-3 0  9999",
        "tle_line2": "2 31314  98.8218 334.4356 0079160  15.6231 344.7353 14.04913607607231"
      },
      "geometry": {
        "type": "Point",
        "coordinates": [
          -41.78829470059554,
          67.52967461884033
        ]
      }
    },
    {
      "type": "Feature",
      "properties": {
        "norad_id": 31319,
        "name": "FENGYUN 1C DEB",
        "group": "fengyun-1c-debris",
        "lat": -17.818603989899028,
        "lon": -112.04641692744809,
        "alt_km": 1016.5900597840428,
        "timestamp": "2025-12-12T05:47:29.052825+00:00",
        "meta_object_name": "FENGYUN 1C DEB",
        "meta_object_id": "1999-025BPX",
        "meta_epoch": "2025-12-11T16:03:37.399968",
        "meta_mean_motion": 13.75827635,
        "meta_eccentricity": 0.01706305,
        "meta_inclination": 98.8308,
        "meta_ra_of_asc_node": 244.559,
        "meta_arg_of_pericenter": 89.7809,
        "meta_mean_anomaly": 301.9758,
        "meta_ephemeris_type": 0,
        "meta_classification_type": "U",
        "meta_norad_cat_id": 31319,
        "meta_element_set_no": 999,
        "meta_rev_at_epoch": 93673,
        "meta_bstar": 0.00023941976,
        "meta_mean_motion_dot": 2.19e-06,
        "meta_mean_motion_ddot": 0,
        "tle_line1": "1 31319U 99025BPX 25345.66918287  .00000219  00000+0  23942-3 0  9992",
        "tle_line2": "2 31319  98.8308 244.5590 0170630  89.7809 301.9758 13.75827635936730"
      },
      "geometry": {
        "type": "Point",
        "coordinates": [
          -112.04641692744809,
          -17.818603989899028
        ]
      }
    },
    {
      "type": "Feature",
      "properties": {
        "norad_id": 31321,
        "name": "FENGYUN 1C DEB",
        "group": "fengyun-1c-debris",
        "lat": -27.69471331573957,
        "lon": -119.50708513299044,
        "alt_km": 833.4082595834807,
        "timestamp": "2025-12-12T05:47:29.052835+00:00",
        "meta_object_name": "FENGYUN 1C DEB",
        "meta_object_id": "1999-025BPZ",
        "meta_epoch": "2025-11-28T23:11:37.489632",
        "meta_mean_motion": 14.13809948,
        "meta_eccentricity": 0.00293651,
        "meta_inclination": 98.7348,
        "meta_ra_of_asc_node": 52.1537,
        "meta_arg_of_pericenter": 217.1862,
        "meta_mean_anomaly": 142.7277,
        "meta_ephemeris_type": 0,
        "meta_classification_type": "U",
        "meta_norad_cat_id": 31321,
        "meta_element_set_no": 999,
        "meta_rev_at_epoch": 57189,
        "meta_bstar": 0.00017233355,
        "meta_mean_motion_dot": 2.84e-06,
        "meta_mean_motion_ddot": 0,
        "tle_line1": "1 31321U 99025BPZ 25332.96640613  .00000284  00000+0  17233-3 0  9997",
        "tle_line2": "2 31321  98.7348  52.1537 0029365 217.1862 142.7277 14.13809948571893"
      },
      "geometry": {
        "type": "Point",
        "coordinates": [
          -119.50708513299044,
          -27.69471331573957
        ]
      }
    }
  ]
}